{
"type": "FeatureCollection",
"name": "andhra_pradesh_boundary",
"crs": { "type": "name", "properties": { "name": "urn:ogc:def:crs:OGC:1.3:CRS84" } },
"features": [
{ "type": "Feature", "properties": { "st_nm": "Andhra Pradesh" }, "geometry": { "type": "Polygon", "coordinates": [ [ [ 81.105446151825959, 17.823133823951366 ], [ 81.393420442352536, 17.814729729284409 ], [ 81.618400356826413, 17.823133823951366 ], [ 82.034613198603111, 18.066852569293175 ], [ 82.345085480577083, 18.056347450959475 ], [ 82.369833271169213, 18.417723521638703 ], [ 82.489072625840365, 18.522774704975689 ], [ 82.610561779656265, 18.373602024637169 ], [ 82.59706298478784, 18.264348793966704 ], [ 82.774797117222207, 18.339985645969335 ], [ 82.806294305248556, 18.447137852973057 ], [ 82.984028437682923, 18.363096906303468 ], [ 83.074020403472488, 18.400915332304784 ], [ 83.033524018867183, 18.57319927297744 ], [ 83.395741681170136, 18.879948728321438 ], [ 83.343996300841155, 19.014414242992778 ], [ 83.481234048670217, 19.008111171992557 ], [ 83.611722399065073, 19.100556213329103 ], [ 83.733211552880974, 18.98499991165842 ], [ 83.796205928933659, 19.016515266659518 ], [ 83.877198698144269, 18.827423136652943 ], [ 84.099928813473412, 18.753887308317054 ], [ 84.340657321960478, 18.800109828985327 ], [ 84.516141655250109, 19.045929597993872 ], [ 84.603883821894925, 19.029121408659954 ], [ 84.66912799709236, 19.129970544663458 ], [ 84.768119159460866, 19.079545976661706 ], [ 84.117927206631322, 18.30216721996802 ], [ 83.703964163999373, 18.102569971627748 ], [ 83.215757749591035, 17.589920196943261 ], [ 82.56106619847202, 17.255857433931652 ], [ 82.300089497682308, 17.024744830590283 ], [ 82.248344117353312, 16.896582386919164 ], [ 82.365333672879729, 16.825147582250011 ], [ 82.297839698537558, 16.570923718574509 ], [ 81.726390715773888, 16.308295760232049 ], [ 81.382171446628831, 16.358720328233801 ], [ 81.258432493668195, 16.318800878565746 ], [ 81.152691933865469, 15.976334020887174 ], [ 80.961459006562663, 15.73471629921211 ], [ 80.837720053602027, 15.707402991544495 ], [ 80.729729694654566, 15.885990003217367 ], [ 80.51149917761488, 15.858676695549752 ], [ 80.345014040904204, 15.751524488546027 ], [ 80.131283122154016, 15.3796432995331 ], [ 80.045790754653936, 15.049782583854968 ], [ 80.194277498206702, 14.564446116838099 ], [ 80.129033323009281, 14.184160833158213 ], [ 80.270770669127828, 13.562257827803265 ], [ 80.225774686233052, 13.484519952133894 ], [ 80.018793164917071, 13.501328141467813 ], [ 79.937800395706461, 13.347953413795814 ], [ 79.683573092350969, 13.24920530145905 ], [ 79.429345788995477, 13.333246248128637 ], [ 79.433845387284961, 13.196679709790557 ], [ 79.23811286169267, 13.146255141788803 ], [ 79.166119289061029, 13.020193721784423 ], [ 78.812900823337017, 13.087426479120094 ], [ 78.63066709261318, 12.984476319449847 ], [ 78.56317311827101, 12.707141195440208 ], [ 78.380939387547159, 12.62099922510388 ], [ 78.232452643994392, 12.761767810775439 ], [ 78.252700836297038, 12.856313875778726 ], [ 78.468681554191974, 12.973971201116148 ], [ 78.576671913139435, 13.282821680126883 ], [ 78.365190793533984, 13.364761603129732 ], [ 78.389938584126114, 13.59167215913762 ], [ 78.088465498731097, 13.65890491647329 ], [ 78.115463088467962, 13.86270421214704 ], [ 78.050218913270541, 13.894219567148136 ], [ 77.919730562875685, 13.906825709148574 ], [ 77.535014909125337, 13.715632555475262 ], [ 77.431524148467346, 13.833289880812686 ], [ 77.24704061859876, 13.900522638148356 ], [ 77.17279724682237, 13.761855076143535 ], [ 76.974814922085343, 13.816481691478767 ], [ 77.042308896427514, 13.93203799314945 ], [ 76.947817332348478, 14.119029099489282 ], [ 77.026560302414339, 14.179958785824734 ], [ 77.028810101559088, 14.060200436820573 ], [ 77.14130005879602, 14.005573821485338 ], [ 77.319034191230401, 14.032887129152956 ], [ 77.355030977546221, 13.902623661815095 ], [ 77.424774751033127, 13.902623661815095 ], [ 77.346031780967266, 14.060200436820573 ], [ 77.397777161296261, 14.173655714824516 ], [ 77.517016515967427, 14.179958785824734 ], [ 77.505767520243722, 14.266100756161062 ], [ 77.402276759585732, 14.335434537163472 ], [ 77.366279973269911, 14.276605874494759 ], [ 77.15929845195393, 14.34383863183043 ], [ 77.053557892151204, 14.245090519493665 ], [ 76.943317734059008, 14.245090519493665 ], [ 76.889322554585277, 14.396364223498924 ], [ 76.979314520374828, 14.48460721750199 ], [ 76.869074362282618, 14.480405170168511 ], [ 76.765583601624627, 14.602264542839414 ], [ 76.869074362282618, 14.96994368451886 ], [ 76.767833400769376, 14.974145731852341 ], [ 76.799330588795712, 15.096005104523242 ], [ 76.880323358006308, 15.032974394521052 ], [ 77.114302469059155, 15.035075418187791 ], [ 77.168297648532899, 15.17374298019261 ], [ 77.152549054519724, 15.291400305530034 ], [ 77.042308896427514, 15.364936133865923 ], [ 77.080555481888069, 15.915404334551724 ], [ 77.253790016032966, 15.961626855219997 ], [ 77.514766716822677, 15.925909452885422 ], [ 78.106463891889007, 15.833464411548876 ], [ 78.275198827744433, 16.041465754556107 ], [ 78.412436575573494, 16.08768827522438 ], [ 78.644165887481606, 16.098193393558077 ], [ 78.745406848994861, 16.028859612555667 ], [ 79.028881541231954, 16.251568121230076 ], [ 79.2336132634032, 16.257871192230294 ], [ 79.274109648008491, 16.568822694907769 ], [ 79.782564254719489, 16.736904588246944 ], [ 79.9512991905749, 16.640257499576919 ], [ 80.079537741825021, 16.820945534916532 ], [ 80.000794771759161, 16.871370102918284 ], [ 80.054789951232891, 16.972219238921792 ], [ 80.203276694785657, 17.024744830590283 ], [ 80.270770669127828, 17.018441759590065 ], [ 80.327015647746293, 16.879774197585242 ], [ 80.57224375452283, 16.770520966914781 ], [ 80.59249194682549, 16.934400812920476 ], [ 80.450754600706929, 16.953310025921134 ], [ 80.504749780180674, 17.108785777259872 ], [ 80.56774415623336, 17.146604203261184 ], [ 80.833220455312542, 17.04575506725768 ], [ 80.914213224523152, 17.209634913263379 ], [ 81.170690327023379, 17.241150268264473 ], [ 81.19993771590498, 17.335696333267759 ], [ 81.325926468010366, 17.390322948602993 ], [ 81.125694344128604, 17.524788463274334 ], [ 81.017703985181129, 17.522687439607591 ], [ 80.891715233075757, 17.676062167279589 ], [ 80.887215634786287, 17.722284687947862 ], [ 80.972708002286353, 17.774810279616354 ], [ 81.042451775773259, 17.739092877281781 ], [ 81.058200369786434, 17.75380004294896 ], [ 81.055950570641699, 17.791618468950272 ], [ 81.064949767220654, 17.789517445283533 ], [ 81.098696754391739, 17.818931776617887 ], [ 81.105446151825959, 17.823133823951366 ] ] ] } }
]
}
